CCSDS_OMM_VERS = 2.0
CREATION_DATE  = 
ORIGINATOR     = 

OBJECT_NAME    = SL-16 R/B
OBJECT_ID      = 1996-051B
CENTER_NAME    = EARTH
REF_FRAME      = TEME
TIME_SYSTEM    = UTC
MEAN_ELEMENT_THEORY = SGP/SGP4

EPOCH          = 2025-11-14T07:13:58.833696
MEAN_MOTION    = 14.12393272
ECCENTRICITY   = .0018234
INCLINATION    = 70.7605
RA_OF_ASC_NODE = 59.4759
ARG_OF_PERICENTER = 297.1370
MEAN_ANOMALY   = 62.7890

EPHEMERIS_TYPE = 0
CLASSIFICATION_TYPE = U
NORAD_CAT_ID   = 24298
ELEMENT_SET_NO = 999
REV_AT_EPOCH   = 50535
BSTAR          = .37316732E-4
MEAN_MOTION_DOT = .2E-6
MEAN_MOTION_DDOT = 0

CCSDS_OMM_VERS = 2.0
CREATION_DATE  = 
ORIGINATOR     = 

OBJECT_NAME    = ORBVIEW 2 (SEASTAR)
OBJECT_ID      = 1997-037A
CENTER_NAME    = EARTH
REF_FRAME      = TEME
TIME_SYSTEM    = UTC
MEAN_ELEMENT_THEORY = SGP/SGP4

EPOCH          = 2025-11-14T01:21:45.315072
MEAN_MOTION    = 14.35386273
ECCENTRICITY   = .00029698
INCLINATION    = 98.8447
RA_OF_ASC_NODE = 114.4122
ARG_OF_PERICENTER = 57.4688
MEAN_ANOMALY   = 302.6783

EPHEMERIS_TYPE = 0
CLASSIFICATION_TYPE = U
NORAD_CAT_ID   = 24883
ELEMENT_SET_NO = 999
REV_AT_EPOCH   = 49188
BSTAR          = .33320184E-3
MEAN_MOTION_DOT = .91E-5
MEAN_MOTION_DDOT = 0

CCSDS_OMM_VERS = 2.0
CREATION_DATE  = 
ORIGINATOR     = 

OBJECT_NAME    = SL-16 R/B
OBJECT_ID      = 1998-043G
CENTER_NAME    = EARTH
REF_FRAME      = TEME
TIME_SYSTEM    = UTC
MEAN_ELEMENT_THEORY = SGP/SGP4

EPOCH          = 2025-11-14T07:28:30.813600
MEAN_MOTION    = 14.26015296
ECCENTRICITY   = .00097641
INCLINATION    = 98.8077
RA_OF_ASC_NODE = 265.9773
ARG_OF_PERICENTER = 355.7175
MEAN_ANOMALY   = 4.3920

EPHEMERIS_TYPE = 0
CLASSIFICATION_TYPE = U
NORAD_CAT_ID   = 25400
ELEMENT_SET_NO = 999
REV_AT_EPOCH   = 42254
BSTAR          = .1120828E-3
MEAN_MOTION_DOT = .222E-5
MEAN_MOTION_DDOT = 0

CCSDS_OMM_VERS = 2.0
CREATION_DATE  = 
ORIGINATOR     = 

OBJECT_NAME    = SL-16 R/B
OBJECT_ID      = 1998-045B
CENTER_NAME    = EARTH
REF_FRAME      = TEME
TIME_SYSTEM    = UTC
MEAN_ELEMENT_THEORY = SGP/SGP4

EPOCH          = 2025-11-14T07:10:50.434176
MEAN_MOTION    = 14.16169125
ECCENTRICITY   = .00085992
INCLINATION    = 71.0121
RA_OF_ASC_NODE = 64.2339
ARG_OF_PERICENTER = 216.7509
MEAN_ANOMALY   = 143.3025

EPHEMERIS_TYPE = 0
CLASSIFICATION_TYPE = U
NORAD_CAT_ID   = 25407
ELEMENT_SET_NO = 999
REV_AT_EPOCH   = 41076
BSTAR          = -.36555312E-4
MEAN_MOTION_DOT = -.12E-5
MEAN_MOTION_DDOT = 0

CCSDS_OMM_VERS = 2.0
CREATION_DATE  = 
ORIGINATOR     = 

OBJECT_NAME    = ISS (ZARYA)
OBJECT_ID      = 1998-067A
CENTER_NAME    = EARTH
REF_FRAME      = TEME
TIME_SYSTEM    = UTC
MEAN_ELEMENT_THEORY = SGP/SGP4

EPOCH          = 2025-11-14T05:23:38.944320
MEAN_MOTION    = 15.49650045
ECCENTRICITY   = .00041947
INCLINATION    = 51.6329
RA_OF_ASC_NODE = 283.6283
ARG_OF_PERICENTER = 68.4296
MEAN_ANOMALY   = 291.7139

EPHEMERIS_TYPE = 0
CLASSIFICATION_TYPE = U
NORAD_CAT_ID   = 25544
ELEMENT_SET_NO = 999
REV_AT_EPOCH   = 53843
BSTAR          = .24659261E-3
MEAN_MOTION_DOT = .13472E-3
MEAN_MOTION_DDOT = 0

CCSDS_OMM_VERS = 2.0
CREATION_DATE  = 
ORIGINATOR     = 

OBJECT_NAME    = CZ-4B R/B
OBJECT_ID      = 1999-025C
CENTER_NAME    = EARTH
REF_FRAME      = TEME
TIME_SYSTEM    = UTC
MEAN_ELEMENT_THEORY = SGP/SGP4

EPOCH          = 2025-11-14T02:30:37.358784
MEAN_MOTION    = 14.18233470
ECCENTRICITY   = .00363524
INCLINATION    = 98.6813
RA_OF_ASC_NODE = 0.0190
ARG_OF_PERICENTER = 318.5952
MEAN_ANOMALY   = 95.3939

EPHEMERIS_TYPE = 0
CLASSIFICATION_TYPE = U
NORAD_CAT_ID   = 25732
ELEMENT_SET_NO = 999
REV_AT_EPOCH   = 37178
BSTAR          = .14148771E-3
MEAN_MOTION_DOT = .249E-5
MEAN_MOTION_DDOT = 0

CCSDS_OMM_VERS = 2.0
CREATION_DATE  = 
ORIGINATOR     = 

OBJECT_NAME    = OKEAN-O
OBJECT_ID      = 1999-039A
CENTER_NAME    = EARTH
REF_FRAME      = TEME
TIME_SYSTEM    = UTC
MEAN_ELEMENT_THEORY = SGP/SGP4

EPOCH          = 2025-11-14T01:23:59.219520
MEAN_MOTION    = 14.80093206
ECCENTRICITY   = .00014097
INCLINATION    = 97.9646
RA_OF_ASC_NODE = 14.0031
ARG_OF_PERICENTER = 67.2619
MEAN_ANOMALY   = 292.8741

EPHEMERIS_TYPE = 0
CLASSIFICATION_TYPE = U
NORAD_CAT_ID   = 25860
ELEMENT_SET_NO = 999
REV_AT_EPOCH   = 41728
BSTAR          = .26115385E-3
MEAN_MOTION_DOT = .1928E-4
MEAN_MOTION_DDOT = 0

CCSDS_OMM_VERS = 2.0
CREATION_DATE  = 
ORIGINATOR     = 

OBJECT_NAME    = SL-16 R/B
OBJECT_ID      = 1999-039B
CENTER_NAME    = EARTH
REF_FRAME      = TEME
TIME_SYSTEM    = UTC
MEAN_ELEMENT_THEORY = SGP/SGP4

EPOCH          = 2025-11-14T03:33:59.735520
MEAN_MOTION    = 14.81528102
ECCENTRICITY   = .0013506
INCLINATION    = 98.0168
RA_OF_ASC_NODE = 12.2923
ARG_OF_PERICENTER = 272.7303
MEAN_ANOMALY   = 87.2363

EPHEMERIS_TYPE = 0
CLASSIFICATION_TYPE = U
NORAD_CAT_ID   = 25861
ELEMENT_SET_NO = 999
REV_AT_EPOCH   = 41975
BSTAR          = .21563636E-3
MEAN_MOTION_DOT = .164E-4
MEAN_MOTION_DDOT = 0

CCSDS_OMM_VERS = 2.0
CREATION_DATE  = 
ORIGINATOR     = 

OBJECT_NAME    = DELTA 2 R/B
OBJECT_ID      = 1999-041E
CENTER_NAME    = EARTH
REF_FRAME      = TEME
TIME_SYSTEM    = UTC
MEAN_ELEMENT_THEORY = SGP/SGP4

EPOCH          = 2025-11-14T05:53:54.072672
MEAN_MOTION    = 14.11301186
ECCENTRICITY   = .0504858
INCLINATION    = 51.7631
RA_OF_ASC_NODE = 42.1790
ARG_OF_PERICENTER = 7.8077
MEAN_ANOMALY   = 353.0352

EPHEMERIS_TYPE = 0
CLASSIFICATION_TYPE = U
NORAD_CAT_ID   = 25876
ELEMENT_SET_NO = 999
REV_AT_EPOCH   = 34672
BSTAR          = .35027279E-3
MEAN_MOTION_DOT = .1935E-4
MEAN_MOTION_DDOT = 0

CCSDS_OMM_VERS = 2.0
CREATION_DATE  = 
ORIGINATOR     = 

OBJECT_NAME    = HELIOS 1B
OBJECT_ID      = 1999-064A
CENTER_NAME    = EARTH
REF_FRAME      = TEME
TIME_SYSTEM    = UTC
MEAN_ELEMENT_THEORY = SGP/SGP4

EPOCH          = 2025-11-14T06:37:35.306112
MEAN_MOTION    = 14.87117309
ECCENTRICITY   = .00026179
INCLINATION    = 98.1755
RA_OF_ASC_NODE = 212.1010
ARG_OF_PERICENTER = 81.3101
MEAN_ANOMALY   = 278.8411

EPHEMERIS_TYPE = 0
CLASSIFICATION_TYPE = U
NORAD_CAT_ID   = 25977
ELEMENT_SET_NO = 999
REV_AT_EPOCH   = 66810
BSTAR          = .44145965E-3
MEAN_MOTION_DOT = .3908E-4
MEAN_MOTION_DDOT = 0

CCSDS_OMM_VERS = 2.0
CREATION_DATE  = 
ORIGINATOR     = 

OBJECT_NAME    = TERRA
OBJECT_ID      = 1999-068A
CENTER_NAME    = EARTH
REF_FRAME      = TEME
TIME_SYSTEM    = UTC
MEAN_ELEMENT_THEORY = SGP/SGP4

EPOCH          = 2025-11-14T07:29:11.281632
MEAN_MOTION    = 14.60905022
ECCENTRICITY   = .00024856
INCLINATION    = 97.9790
RA_OF_ASC_NODE = 11.0328
ARG_OF_PERICENTER = 157.8130
MEAN_ANOMALY   = 271.2336

EPHEMERIS_TYPE = 0
CLASSIFICATION_TYPE = U
NORAD_CAT_ID   = 25994
ELEMENT_SET_NO = 999
REV_AT_EPOCH   = 37823
BSTAR          = .24673833E-3
MEAN_MOTION_DOT = .1163E-4
MEAN_MOTION_DDOT = 0

CCSDS_OMM_VERS = 2.0
CREATION_DATE  = 
ORIGINATOR     = 

OBJECT_NAME    = SL-16 R/B
OBJECT_ID      = 2000-006B
CENTER_NAME    = EARTH
REF_FRAME      = TEME
TIME_SYSTEM    = UTC
MEAN_ELEMENT_THEORY = SGP/SGP4

EPOCH          = 2025-11-14T06:49:58.975968
MEAN_MOTION    = 14.15802304
ECCENTRICITY   = .00169787
INCLINATION    = 71.0032
RA_OF_ASC_NODE = 340.4899
ARG_OF_PERICENTER = 348.6014
MEAN_ANOMALY   = 11.4722

EPHEMERIS_TYPE = 0
CLASSIFICATION_TYPE = U
NORAD_CAT_ID   = 26070
ELEMENT_SET_NO = 999
REV_AT_EPOCH   = 33222
BSTAR          = -.37185091E-4
MEAN_MOTION_DOT = -.121E-5
MEAN_MOTION_DDOT = 0

