SL-16 R/B               
1 24298U 96051B   25318.30137539  .00000020  00000+0  37317-4 0  9992
2 24298  70.7605  59.4759 0018234 297.1370  62.7890 14.12393272505352
ORBVIEW 2 (SEASTAR)     
1 24883U 97037A   25318.05677448  .00000910  00000+0  33320-3 0  9994
2 24883  98.8447 114.4122 0002969  57.4688 302.6783 14.35386273491887
SL-16 R/B               
1 25400U 98043G   25318.31146775  .00000222  00000+0  11208-3 0  9998
2 25400  98.8077 265.9773 0009764 355.7175   4.3920 14.26015296422541
SL-16 R/B               
1 25407U 98045B   25318.29919484 -.00000120  00000+0 -36555-4 0  9991
2 25407  71.0121  64.2339 0008599 216.7509 143.3025 14.16169125410762
ISS (ZARYA)             
1 25544U 98067A   25318.22475630  .00013472  00000+0  24659-3 0  9993
2 25544  51.6329 283.6283 0004194  68.4296 291.7139 15.49650045538437
CZ-4B R/B               
1 25732U 99025C   25318.10459906  .00000249  00000+0  14149-3 0  9993
2 25732  98.6813   0.0190 0036352 318.5952  95.3939 14.18233470371785
OKEAN-O                 
1 25860U 99039A   25318.05832430  .00001928  00000+0  26115-3 0  9992
2 25860  97.9646  14.0031 0001409  67.2619 292.8741 14.80093206417286
SL-16 R/B               
1 25861U 99039B   25318.14860805  .00001640  00000+0  21564-3 0  9994
2 25861  98.0168  12.2923 0013506 272.7303  87.2363 14.81528102419751
DELTA 2 R/B             
1 25876U 99041E   25318.24576473  .00001935  00000+0  35027-3 0  9995
2 25876  51.7631  42.1790 0504858   7.8077 353.0352 14.11301186346724
HELIOS 1B               
1 25977U 99064A   25318.27610308  .00003908  00000+0  44146-3 0  9995
2 25977  98.1755 212.1010 0002617  81.3101 278.8411 14.87117309668107
TERRA                   
1 25994U 99068A   25318.31193613  .00001163  00000+0  24674-3 0  9993
2 25994  97.9790  11.0328 0002485 157.8130 271.2336 14.60905022378237
SL-16 R/B               
1 26070U 00006B   25318.28471037 -.00000121  00000+0 -37185-4 0  9995
2 26070  71.0032 340.4899 0016978 348.6014  11.4722 14.15802304332221
